{
  "type": "FeatureCollection",
  "features": [
    {
      "type": "Feature",
      "properties": {
        "norad_id": 37491,
        "name": "COSMOS 2251 DEB",
        "group": "cosmos-2251-debris",
        "lat": -6.174014376238882,
        "lon": -108.74052337386281,
        "alt_km": 1056.3689690320298,
        "timestamp": "2025-12-25T07:00:34.445985+00:00",
        "meta_object_name": "COSMOS 2251 DEB",
        "meta_object_id": "1993-036BLU",
        "meta_epoch": "2025-12-22T10:57:29.496960",
        "meta_mean_motion": 13.75314212,
        "meta_eccentricity": 0.03164965,
        "meta_inclination": 73.9061,
        "meta_ra_of_asc_node": 257.8008,
        "meta_arg_of_pericenter": 249.1105,
        "meta_mean_anomaly": 107.5867,
        "meta_ephemeris_type": 0,
        "meta_classification_type": "U",
        "meta_norad_cat_id": 37491,
        "meta_element_set_no": 999,
        "meta_rev_at_epoch": 55880,
        "meta_bstar": 0.00087641846,
        "meta_mean_motion_dot": 1.186e-05,
        "meta_mean_motion_ddot": 0,
        "tle_line1": "1 37491U 93036BLU 25356.45659140  .00001186  00000+0  87642-3 0  9995",
        "tle_line2": "2 37491  73.9061 257.8008 0316496 249.1105 107.5867 13.75314212558802"
      },
      "geometry": {
        "type": "Point",
        "coordinates": [
          -108.74052337386281,
          -6.174014376238882
        ]
      }
    },
    {
      "type": "Feature",
      "properties": {
        "norad_id": 37498,
        "name": "COSMOS 2251 DEB",
        "group": "cosmos-2251-debris",
        "lat": 25.085121656663894,
        "lon": 167.8370015720663,
        "alt_km": 717.1440316388953,
        "timestamp": "2025-12-25T07:00:34.445995+00:00",
        "meta_object_name": "COSMOS 2251 DEB",
        "meta_object_id": "1993-036BMB",
        "meta_epoch": "2025-12-17T05:47:45.632832",
        "meta_mean_motion": 14.54797097,
        "meta_eccentricity": 0.00121661,
        "meta_inclination": 74.035,
        "meta_ra_of_asc_node": 175.365,
        "meta_arg_of_pericenter": 238.5243,
        "meta_mean_anomaly": 121.4732,
        "meta_ephemeris_type": 0,
        "meta_classification_type": "U",
        "meta_norad_cat_id": 37498,
        "meta_element_set_no": 999,
        "meta_rev_at_epoch": 65420,
        "meta_bstar": 0.00050498457,
        "meta_mean_motion_dot": 2.139e-05,
        "meta_mean_motion_ddot": 0,
        "tle_line1": "1 37498U 93036BMB 25351.24150038  .00002139  00000+0  50498-3 0  9994",
        "tle_line2": "2 37498  74.0350 175.3650 0012166 238.5243 121.4732 14.54797097654202"
      },
      "geometry": {
        "type": "Point",
        "coordinates": [
          167.8370015720663,
          25.085121656663894
        ]
      }
    },
    {
      "type": "Feature",
      "properties": {
        "norad_id": 37499,
        "name": "COSMOS 2251 DEB",
        "group": "cosmos-2251-debris",
        "lat": 33.61510032553477,
        "lon": -49.82137001884557,
        "alt_km": 756.710102832345,
        "timestamp": "2025-12-25T07:00:34.446005+00:00",
        "meta_object_name": "COSMOS 2251 DEB",
        "meta_object_id": "1993-036BMC",
        "meta_epoch": "2025-12-24T12:26:03.241248",
        "meta_mean_motion": 14.34353311,
        "meta_eccentricity": 0.00274464,
        "meta_inclination": 74.0384,
        "meta_ra_of_asc_node": 300.6268,
        "meta_arg_of_pericenter": 13.4161,
        "meta_mean_anomaly": 346.7714,
        "meta_ephemeris_type": 0,
        "meta_classification_type": "U",
        "meta_norad_cat_id": 37499,
        "meta_element_set_no": 999,
        "meta_rev_at_epoch": 85318,
        "meta_bstar": 0.00017519281,
        "meta_mean_motion_dot": 4.69e-06,
        "meta_mean_motion_ddot": 0,
        "tle_line1": "1 37499U 93036BMC 25358.51809307  .00000469  00000+0  17519-3 0  9993",
        "tle_line2": "2 37499  74.0384 300.6268 0027446  13.4161 346.7714 14.34353311853189"
      },
      "geometry": {
        "type": "Point",
        "coordinates": [
          -49.82137001884557,
          33.61510032553477
        ]
      }
    },
    {
      "type": "Feature",
      "properties": {
        "norad_id": 37528,
        "name": "COSMOS 2251 DEB",
        "group": "cosmos-2251-debris",
        "lat": -20.88496018155842,
        "lon": -75.18011025216197,
        "alt_km": 717.7665073175867,
        "timestamp": "2025-12-25T07:00:34.446015+00:00",
        "meta_object_name": "COSMOS 2251 DEB",
        "meta_object_id": "1993-036BNH",
        "meta_epoch": "2025-12-22T00:17:10.365792",
        "meta_mean_motion": 14.50551817,
        "meta_eccentricity": 0.00211657,
        "meta_inclination": 74.0378,
        "meta_ra_of_asc_node": 104.7119,
        "meta_arg_of_pericenter": 251.9967,
        "meta_mean_anomaly": 107.8887,
        "meta_ephemeris_type": 0,
        "meta_classification_type": "U",
        "meta_norad_cat_id": 37528,
        "meta_element_set_no": 999,
        "meta_rev_at_epoch": 86065,
        "meta_bstar": 0.00046776664,
        "meta_mean_motion_dot": 1.81e-05,
        "meta_mean_motion_ddot": 0,
        "tle_line1": "1 37528U 93036BNH 25356.01192553  .00001810  00000+0  46777-3 0  9996",
        "tle_line2": "2 37528  74.0378 104.7119 0021165 251.9967 107.8887 14.50551817860654"
      },
      "geometry": {
        "type": "Point",
        "coordinates": [
          -75.18011025216197,
          -20.88496018155842
        ]
      }
    },
    {
      "type": "Feature",
      "properties": {
        "norad_id": 37530,
        "name": "COSMOS 2251 DEB",
        "group": "cosmos-2251-debris",
        "lat": 66.6311387586807,
        "lon": 89.16770496833315,
        "alt_km": 772.4050669002099,
        "timestamp": "2025-12-25T07:00:34.446025+00:00",
        "meta_object_name": "COSMOS 2251 DEB",
        "meta_object_id": "1993-036BNK",
        "meta_epoch": "2025-12-21T14:21:51.053184",
        "meta_mean_motion": 14.34514444,
        "meta_eccentricity": 0.00262828,
        "meta_inclination": 74.0362,
        "meta_ra_of_asc_node": 317.4173,
        "meta_arg_of_pericenter": 16.8555,
        "meta_mean_anomaly": 103.2676,
        "meta_ephemeris_type": 0,
        "meta_classification_type": "U",
        "meta_norad_cat_id": 37530,
        "meta_element_set_no": 999,
        "meta_rev_at_epoch": 85359,
        "meta_bstar": 0.00021615779,
        "meta_mean_motion_dot": 5.86e-06,
        "meta_mean_motion_ddot": 0,
        "tle_line1": "1 37530U 93036BNK 25355.59850756  .00000586  00000+0  21616-3 0  9991",
        "tle_line2": "2 37530  74.0362 317.4173 0026282  16.8555 103.2676 14.34514444853597"
      },
      "geometry": {
        "type": "Point",
        "coordinates": [
          89.16770496833315,
          66.6311387586807
        ]
      }
    },
    {
      "type": "Feature",
      "properties": {
        "norad_id": 37532,
        "name": "COSMOS 2251 DEB",
        "group": "cosmos-2251-debris",
        "lat": -59.70918887998838,
        "lon": 41.77367097528905,
        "alt_km": 749.5303399379063,
        "timestamp": "2025-12-25T07:00:34.446036+00:00",
        "meta_object_name": "COSMOS 2251 DEB",
        "meta_object_id": "1993-036BNM",
        "meta_epoch": "2025-12-24T19:59:09.008160",
        "meta_mean_motion": 14.42423835,
        "meta_eccentricity": 0.00162225,
        "meta_inclination": 74.0486,
        "meta_ra_of_asc_node": 193.3082,
        "meta_arg_of_pericenter": 292.8067,
        "meta_mean_anomaly": 87.0164,
        "meta_ephemeris_type": 0,
        "meta_classification_type": "U",
        "meta_norad_cat_id": 37532,
        "meta_element_set_no": 999,
        "meta_rev_at_epoch": 85090,
        "meta_bstar": 0.00019035251,
        "meta_mean_motion_dot": 6.04e-06,
        "meta_mean_motion_ddot": 0,
        "tle_line1": "1 37532U 93036BNM 25358.83274315  .00000604  00000+0  19035-3 0  9997",
        "tle_line2": "2 37532  74.0486 193.3082 0016222 292.8067  87.0164 14.42423835850908"
      },
      "geometry": {
        "type": "Point",
        "coordinates": [
          41.77367097528905,
          -59.70918887998838
        ]
      }
    },
    {
      "type": "Feature",
      "properties": {
        "norad_id": 37533,
        "name": "COSMOS 2251 DEB",
        "group": "cosmos-2251-debris",
        "lat": 48.54361300028942,
        "lon": -171.4533815615026,
        "alt_km": 959.9929854498514,
        "timestamp": "2025-12-25T07:00:34.446046+00:00",
        "meta_object_name": "COSMOS 2251 DEB",
        "meta_object_id": "1993-036BNN",
        "meta_epoch": "2025-12-17T06:38:38.162976",
        "meta_mean_motion": 14.12190824,
        "meta_eccentricity": 0.0157786,
        "meta_inclination": 74.0692,
        "meta_ra_of_asc_node": 183.8069,
        "meta_arg_of_pericenter": 239.4795,
        "meta_mean_anomaly": 119.0691,
        "meta_ephemeris_type": 0,
        "meta_classification_type": "U",
        "meta_norad_cat_id": 37533,
        "meta_element_set_no": 999,
        "meta_rev_at_epoch": 62985,
        "meta_bstar": 0.0010470743,
        "meta_mean_motion_dot": 2.138e-05,
        "meta_mean_motion_ddot": 0,
        "tle_line1": "1 37533U 93036BNN 25351.27683059  .00002138  00000+0  10471-2 0  9996",
        "tle_line2": "2 37533  74.0692 183.8069 0157786 239.4795 119.0691 14.12190824629858"
      },
      "geometry": {
        "type": "Point",
        "coordinates": [
          -171.4533815615026,
          48.54361300028942
        ]
      }
    }
  ]
}